{
  "type": "FeatureCollection",
  "features": [
    {
      "type": "Feature",
      "properties": {
        "norad_id": 66578,
        "name": "STARLINK-35743",
        "group": "last-30-days",
        "lat": 9.846033919444947,
        "lon": -34.18728021207845,
        "alt_km": 381.84147859834957,
        "timestamp": "2025-12-06T16:45:41.516326+00:00",
        "meta_object_name": "STARLINK-35743",
        "meta_object_id": "2025-268X",
        "meta_epoch": "2025-12-06T06:00:02.000160",
        "meta_mean_motion": 15.6355992,
        "meta_eccentricity": 0.00014015,
        "meta_inclination": 42.9997,
        "meta_ra_of_asc_node": 159.2177,
        "meta_arg_of_pericenter": 268.2924,
        "meta_mean_anomaly": 251.8718,
        "meta_ephemeris_type": 0,
        "meta_classification_type": "U",
        "meta_norad_cat_id": 66578,
        "meta_element_set_no": 999,
        "meta_rev_at_epoch": 362,
        "meta_bstar": -0.024128501,
        "meta_mean_motion_dot": -0.02020674,
        "meta_mean_motion_ddot": 0,
        "tle_line1": "1 66578U 25268X   25340.25002315 -.02020674  00000+0 -24129-1 0  9998",
        "tle_line2": "2 66578  42.9997 159.2177 0001401 268.2924 251.8718 15.63559920  3623"
      },
      "geometry": {
        "type": "Point",
        "coordinates": [
          -34.18728021207845,
          9.846033919444947
        ]
      }
    },
    {
      "type": "Feature",
      "properties": {
        "norad_id": 66579,
        "name": "STARLINK-35868",
        "group": "last-30-days",
        "lat": 8.560383039751423,
        "lon": -32.75445000236751,
        "alt_km": 382.00950559263765,
        "timestamp": "2025-12-06T16:45:41.516336+00:00",
        "meta_object_name": "STARLINK-35868",
        "meta_object_id": "2025-268Y",
        "meta_epoch": "2025-12-06T06:00:02.000160",
        "meta_mean_motion": 15.63559646,
        "meta_eccentricity": 0.00015276,
        "meta_inclination": 42.9997,
        "meta_ra_of_asc_node": 159.2126,
        "meta_arg_of_pericenter": 268.4314,
        "meta_mean_anomaly": 253.6469,
        "meta_ephemeris_type": 0,
        "meta_classification_type": "U",
        "meta_norad_cat_id": 66579,
        "meta_element_set_no": 999,
        "meta_rev_at_epoch": 362,
        "meta_bstar": -0.024095538,
        "meta_mean_motion_dot": -0.02018335,
        "meta_mean_motion_ddot": 0,
        "tle_line1": "1 66579U 25268Y   25340.25002315 -.02018335  00000+0 -24096-1 0  9993",
        "tle_line2": "2 66579  42.9997 159.2126 0001527 268.4314 253.6469 15.63559646  3620"
      },
      "geometry": {
        "type": "Point",
        "coordinates": [
          -32.75445000236751,
          8.560383039751423
        ]
      }
    },
    {
      "type": "Feature",
      "properties": {
        "norad_id": 66580,
        "name": "STARLINK-35872",
        "group": "last-30-days",
        "lat": 7.266435103250329,
        "lon": -31.327021570410135,
        "alt_km": 382.1852197635235,
        "timestamp": "2025-12-06T16:45:41.516346+00:00",
        "meta_object_name": "STARLINK-35872",
        "meta_object_id": "2025-268Z",
        "meta_epoch": "2025-12-06T06:00:02.000160",
        "meta_mean_motion": 15.63562385,
        "meta_eccentricity": 0.00014375,
        "meta_inclination": 42.9996,
        "meta_ra_of_asc_node": 159.2085,
        "meta_arg_of_pericenter": 269.8908,
        "meta_mean_anomaly": 254.1053,
        "meta_ephemeris_type": 0,
        "meta_classification_type": "U",
        "meta_norad_cat_id": 66580,
        "meta_element_set_no": 999,
        "meta_rev_at_epoch": 362,
        "meta_bstar": -0.024161951,
        "meta_mean_motion_dot": -0.02023329,
        "meta_mean_motion_ddot": 0,
        "tle_line1": "1 66580U 25268Z   25340.25002315 -.02023329  00000+0 -24162-1 0  9998",
        "tle_line2": "2 66580  42.9996 159.2085 0001437 269.8908 254.1053 15.63562385  3628"
      },
      "geometry": {
        "type": "Point",
        "coordinates": [
          -31.327021570410135,
          7.266435103250329
        ]
      }
    },
    {
      "type": "Feature",
      "properties": {
        "norad_id": 66581,
        "name": "STARLINK-35744",
        "group": "last-30-days",
        "lat": 5.970213924097589,
        "lon": -29.911752667080815,
        "alt_km": 382.3040299091508,
        "timestamp": "2025-12-06T16:45:41.516356+00:00",
        "meta_object_name": "STARLINK-35744",
        "meta_object_id": "2025-268AA",
        "meta_epoch": "2025-12-06T06:00:02.000160",
        "meta_mean_motion": 15.6355846,
        "meta_eccentricity": 0.00015036,
        "meta_inclination": 42.9997,
        "meta_ra_of_asc_node": 159.2028,
        "meta_arg_of_pericenter": 268.7976,
        "meta_mean_anomaly": 257.1163,
        "meta_ephemeris_type": 0,
        "meta_classification_type": "U",
        "meta_norad_cat_id": 66581,
        "meta_element_set_no": 999,
        "meta_rev_at_epoch": 357,
        "meta_bstar": -0.024085856,
        "meta_mean_motion_dot": -0.02017522,
        "meta_mean_motion_ddot": 0,
        "tle_line1": "1 66581U 25268AA  25340.25002315 -.02017522  00000+0 -24086-1 0  9992",
        "tle_line2": "2 66581  42.9997 159.2028 0001503 268.7976 257.1163 15.63558460  3572"
      },
      "geometry": {
        "type": "Point",
        "coordinates": [
          -29.911752667080815,
          5.970213924097589
        ]
      }
    },
    {
      "type": "Feature",
      "properties": {
        "norad_id": 66582,
        "name": "STARLINK-35746",
        "group": "last-30-days",
        "lat": 4.669359313017465,
        "lon": -28.501290676289777,
        "alt_km": 382.47900384607783,
        "timestamp": "2025-12-06T16:45:41.516365+00:00",
        "meta_object_name": "STARLINK-35746",
        "meta_object_id": "2025-268AB",
        "meta_epoch": "2025-12-06T06:00:02.000160",
        "meta_mean_motion": 15.6356152,
        "meta_eccentricity": 0.00014939,
        "meta_inclination": 42.9995,
        "meta_ra_of_asc_node": 159.198,
        "meta_arg_of_pericenter": 269.9644,
        "meta_mean_anomaly": 257.8657,
        "meta_ephemeris_type": 0,
        "meta_classification_type": "U",
        "meta_norad_cat_id": 66582,
        "meta_element_set_no": 999,
        "meta_rev_at_epoch": 362,
        "meta_bstar": -0.024144849,
        "meta_mean_motion_dot": -0.02022058,
        "meta_mean_motion_ddot": 0,
        "tle_line1": "1 66582U 25268AB  25340.25002315 -.02022058  00000+0 -24145-1 0  9999",
        "tle_line2": "2 66582  42.9995 159.1980 0001493 269.9644 257.8657 15.63561520  3622"
      },
      "geometry": {
        "type": "Point",
        "coordinates": [
          -28.501290676289777,
          4.669359313017465
        ]
      }
    },
    {
      "type": "Feature",
      "properties": {
        "norad_id": 66583,
        "name": "STARLINK-35941",
        "group": "last-30-days",
        "lat": 3.3650561344713408,
        "lon": -27.09520926715504,
        "alt_km": 382.57123485450666,
        "timestamp": "2025-12-06T16:45:41.516378+00:00",
        "meta_object_name": "STARLINK-35941",
        "meta_object_id": "2025-268AC",
        "meta_epoch": "2025-12-06T06:00:02.000160",
        "meta_mean_motion": 15.63559236,
        "meta_eccentricity": 0.00014337,
        "meta_inclination": 42.9997,
        "meta_ra_of_asc_node": 159.1933,
        "meta_arg_of_pericenter": 268.4447,
        "meta_mean_anomaly": 261.3046,
        "meta_ephemeris_type": 0,
        "meta_classification_type": "U",
        "meta_norad_cat_id": 66583,
        "meta_element_set_no": 999,
        "meta_rev_at_epoch": 362,
        "meta_bstar": -0.024113357,
        "meta_mean_motion_dot": -0.0201954,
        "meta_mean_motion_ddot": 0,
        "tle_line1": "1 66583U 25268AC  25340.25002315 -.02019540  00000+0 -24113-1 0  9997",
        "tle_line2": "2 66583  42.9997 159.1933 0001433 268.4447 261.3046 15.63559236  3625"
      },
      "geometry": {
        "type": "Point",
        "coordinates": [
          -27.09520926715504,
          3.3650561344713408
        ]
      }
    },
    {
      "type": "Feature",
      "properties": {
        "norad_id": 66584,
        "name": "STARLINK-35939",
        "group": "last-30-days",
        "lat": 2.06093958138788,
        "lon": -25.69502220114456,
        "alt_km": 382.6730363462111,
        "timestamp": "2025-12-06T16:45:41.516388+00:00",
        "meta_object_name": "STARLINK-35939",
        "meta_object_id": "2025-268AD",
        "meta_epoch": "2025-12-06T06:00:02.000160",
        "meta_mean_motion": 15.63559418,
        "meta_eccentricity": 0.00015192,
        "meta_inclination": 42.9998,
        "meta_ra_of_asc_node": 159.1889,
        "meta_arg_of_pericenter": 266.9995,
        "meta_mean_anomaly": 264.6656,
        "meta_ephemeris_type": 0,
        "meta_classification_type": "U",
        "meta_norad_cat_id": 66584,
        "meta_element_set_no": 999,
        "meta_rev_at_epoch": 362,
        "meta_bstar": -0.024110917,
        "meta_mean_motion_dot": -0.0201944,
        "meta_mean_motion_ddot": 0,
        "tle_line1": "1 66584U 25268AD  25340.25002315 -.02019440  00000+0 -24111-1 0  9995",
        "tle_line2": "2 66584  42.9998 159.1889 0001519 266.9995 264.6656 15.63559418  3628"
      },
      "geometry": {
        "type": "Point",
        "coordinates": [
          -25.69502220114456,
          2.06093958138788
        ]
      }
    }
  ]
}